ONEWEB-0533             
1 55141U 23004B   23298.61082698 -.00000002  00000+0 -41367-4 0  9997
2 55141  87.9032 182.5892 0001664  73.7767 286.3544 13.12439191 41401
ONEWEB-0541             
1 55142U 23004C   23298.26651544 -.00000454  00000+0 -13178-2 0  9999
2 55142  87.9002 212.9551 0001864  77.0296 283.1040 13.11416554 39348
ONEWEB-0543             
1 55143U 23004D   23298.66670139 -.01003791  00000+0 -89819+0 0  9995
2 55143  87.3467 168.7184 0002548 330.8754 146.2673 13.87683305  5603
ONEWEB-0544             
1 55144U 23004E   23298.66670139 -.00991825  00000+0 -90471+0 0  9995
2 55144  87.3497 168.6804 0001601  12.3171  15.6242 13.86521581  5448
ONEWEB-0560             
1 55145U 23004F   23298.66670139 -.01000976  00000+0 -88992+0 0  9990
2 55145  87.3390 168.6330 0002035  38.7214 249.0566 13.88050156  5615
ONEWEB-0565             
1 55146U 23004G   23298.66670139 -.00993967  00000+0 -90294+0 0  9999
2 55146  87.3598 168.6892 0000988  23.8879 125.9582 13.86769687  5621
ONEWEB-0567             
1 55147U 23004H   23298.66670139 -.00979466  00000+0 -90194+0 0  9997
2 55147  87.3508 168.6467 0003198 354.6842   7.3991 13.85924390  5543
ONEWEB-0569             
1 55148U 23004J   23298.87335235  .00001512  00000+0  26987-3 0  9995
2 55148  86.5359 164.0218 0003049  26.6702 333.4668 14.66339278 42549
